#dP2023  8 24  0  0  0.00000000      96 __u+U ITR00 EXT  IAC
## 2276 345600.00000000   900.00000000 60180 0.0000000000000
+  118   C06C07C08C09C10C11C12C13C14C16C19C20C21C22C23C24C25
+        C26C27C28C29C30C32C33C34C35C36C37C38C39C40C41C42C43
+        C44C45C46E02E03E04E05E07E08E09E10E11E12E13E14E15E18
+        E19E21E24E25E26E27E30E31E33E34E36G01G02G03G04G05G06
+        G07G08G09G10G11G12G13G14G15G16G17G18G19G20G21G22G23
+        G24G25G26G27G29G30G31G32J02J03J04R01R02R03R04R05R07
+        R08R09R11R12R13R14R15R16R17R18R19R20R21R22R24R25  0
++        10 10 10 10 10  8  9 10  9 11  7  9  8  9 10  9 10
++         9  8  9  9  8  8  9  8  8  9 10 11 11 10 10  8  8
++         8  8  7  8  8  8  8  8  8  8  8  7  8  8  8  8  8
++         8  8  8  7  8  8  8  8  8  7  8  7  8  8  7  8  9
++         8  7  7  7  8  8  7  7  8  7  8  7  8  8  8  7  8
++         7  8  8  7  7  7  7  8  9  8 10  9  9  8  8  8  9
++         8  9  8 10  7  7  8  8  7  9  8  9  7  8  9  8  0
%c M  cc GPS ccc cccc cccc cccc cccc ccccc ccccc ccccc ccccc
%c cc cc ccc ccc cccc cccc cccc cccc ccccc ccccc ccccc ccccc
%f  0.0000000  0.000000000  0.00000000000  0.000000000000000
%f  0.0000000  0.000000000  0.00000000000  0.000000000000000
%i    0    0    0    0      0      0      0      0         0
%i    0    0    0    0      0      0      0      0         0
/* IAC                                ULTRA-RAPID PREDICTION
/* S/V CLOCKS ARE ALIGNED TO GNSS TIME                      
/* G:C1WC2W R:C1PC2P E:C1XC5X C:C2IC6I J:C1CC2S             
/* PCV:IGS20_2274 OL/AL:FES2004  NONE     YN ORB:CoN CLK:CoN
*  2023 08 24  9 45  0.00000000
PC06  -1322.193687  31878.190878  27731.949797    934.609831
PC07 -15992.581756  28008.588498 -27157.847099     21.293225
PC08 -14103.986924  39539.248141   2321.937567    376.619700
PC09   5197.264437  36073.222544  22103.469024    253.555899
PC10  -8576.448255  28419.665723 -29762.210160   -155.537712
PC11 -23031.822276  -7949.253956 -13566.352619    795.654720
PC12 -19303.285164 -19744.341380   4143.741913    897.870649
PC13  -8787.510824  40167.264677   8748.095639    339.813951
PC14 -26035.587956   3183.551355  -9602.946788    282.254548
PC16  -3878.941122  29760.825911  29982.937733    -49.059548
PC19  26100.960396  -9826.068637    542.913283   -967.251692
PC20  22693.566822   2777.723706  15983.518442    337.766747
PC21  -5243.005089 -14789.076136 -23069.977366   -955.146116
PC22  14636.722246 -17456.856397 -16110.428831   -337.721519
PC23  -9681.749291  24908.176982   8041.891059   -894.419116
PC24 -13591.819863 -12133.047002  21139.515912    317.723966
PC25 -16068.834170  10372.193428  20308.846429    196.159422
PC26  -4016.544740 -25718.661383  10093.565395   -167.688695
PC27  13345.075146  21505.889925 -11779.071116    189.002879
PC28  -3080.995831  17115.369720 -21819.504598    141.493098
PC29  19887.417935  -2054.279231  19459.778012    165.127266
PC30  23748.305996  13953.465261   4519.999406     -3.923127
PC32   5204.486870  14827.113243  23068.164649   -530.838374
PC33 -26078.335274   9939.669115   -637.035524   -945.702547
PC34 -23987.305596 -12984.873578  -5874.687281    244.077508
PC35   2730.687461 -17150.081802  21826.158933    561.247178
PC36  16397.108261  -9156.453947 -20614.503915   -260.634313
PC37   2828.083493  26135.652410  -9310.181670   -813.087368
PC38 -17608.117149  37740.286578  -5914.599563    100.226624
PC39  -7817.160937  25681.176175  32612.831024     -4.446948
PC40 -22757.700492  21514.646228 -28332.414548    -33.989925
PC41 -15233.796253  17462.952495  15599.765073   -884.954351
PC42 -21854.617462  -3784.702370 -16915.096090   -568.026802
PC43 -20443.490874   1339.704442 -18951.737454     36.663228
PC44 -13952.259153 -21038.996568  11853.248812    209.829666
PC45   9359.839182 -25192.177714  -7554.881706    -17.610541
PC46  13988.201262  10663.253136 -21652.275244    -78.950012
PE02  21201.403608 -20357.896166  -3555.130862     57.587572
PE03  19794.670377 -10109.561597 -19547.822572    -49.044251
PE04   1011.313646  17318.800855  23986.734050   -196.412875
PE05  29211.327039   3055.905503  -3667.679892     11.905868
PE07 -21239.797939 -14554.950823 -14608.992507    -69.680706
PE08   -565.900728 -17123.458097 -24141.675390   -135.246917
PE09  21130.992214  14503.526801  14794.834918   -131.559401
PE10   9570.630348  28001.128040   -278.163664   -558.470793
PE11  14950.563888  23496.060809  10019.560367   2791.014541
PE12   3096.909194  27865.931466  -9510.666286   -670.216843
PE13 -14676.707267 -23931.018673  -9392.509658    -19.493731
PE14   -215.734227 -16660.617364  19047.736022    320.285147
PE15  -2891.398838 -27750.005650   9892.439619    -47.612517
PE18 -11232.743623  17200.643042 -23410.030083    449.872111
PE19 -21896.221993   8407.486935  18060.241828  -1782.411155
PE21 -22051.465550   5301.212487  19028.222187   -548.506076
PE24   9695.867739  14194.801416 -24102.039887   -283.109672
PE25  21940.855886  -4967.238580 -19227.466070     -0.737609
PE26 -17755.965705  -5342.160927 -23077.199767    201.968299
PE27 -10200.989246 -13645.098896  24215.281237   -132.423974
PE30   7972.368294 -24418.256107  14716.124257   -443.369690
PE31  -7530.258778  24332.428139 -15065.777937     -3.413727
PE33 -10792.412412  14651.310485 -23345.543604     -1.223182
PE34  10377.663784 -15319.233088  23098.100741    -63.240222
PE36  17704.992749   6166.507462  22902.022771   -105.720140
PG01  15085.553928   1132.266484  21532.259107    167.502165
PG02  17395.083402   7427.486649  19215.239629   -561.986662
PG03  20726.446143  -9311.541519  13513.209989   -171.687227
PG04  24814.947001   -599.301328  -9606.517135    135.107840
PG05 -14843.495962  -5375.756092 -21557.026378   -140.013747
PG06  -4955.754649 -25688.184519   4351.566180    561.758232
PG07   8669.712006 -16265.477630 -18474.698941     86.908298
PG08  26075.860555   5937.310808  -1481.470546   -138.757998
PG09  19040.031827  -8285.578071 -16666.195029    -78.447310
PG10  -7788.648404  21691.978587  13087.787695    -50.544821
PG11 -12465.496799 -21514.258530  -9394.117239   -335.395738
PG12 -20579.853846   4484.050487  15857.978709   -416.605058
PG13 -21541.997026 -13694.915317  -7917.313531    563.997745
PG14  11072.122151 -21876.552183  10021.857344    163.668354
PG15 -26535.720670  -2804.370202  -1268.528541     70.792850
PG16  10999.749085  10647.802345 -22018.293985   -464.037698
PG17   2821.045151 -14918.625270  22221.766129    723.130245
PG18  -7042.668256  18396.625661 -17729.549621   -393.491109
PG19  -6554.505163 -16364.895786  19762.302849    361.939035
PG20  -7458.982299 -15388.329840 -20330.551945    415.561407
PG21  17792.392535  10613.684959  17629.530123    150.201128
PG22   5331.689272 -20549.819183  16589.883227    135.564612
PG23 -16593.309042  20587.000700   1154.958475     59.058830
PG24 -17512.781164  -5281.252463  19021.320308   -299.142536
PG25 -19706.539394  16703.485313   5218.121182    463.937252
PG26   2715.724255  18799.327933 -18547.289092    231.664461
PG27  19925.681664  13018.806167 -12457.863360    -27.541318
PG29 -19744.834169   6007.198570 -16825.703029   -608.330621
PG30   1892.054916 -23443.180526 -11961.856841   -493.854645
PG31  10399.354120  23798.052437  -4527.065274   -222.334915
PG32   2751.259803  15828.327035  21364.170030   -546.134635
PJ02 -35587.959967  22707.101702   5113.891451     -2.983796
PJ03 -21090.893828  21295.515240 -25048.507181     -1.506512
PJ04 -26551.672598  31909.210562  13258.434484     70.480677
PR01 -24831.967027   5814.504381    724.984733     64.138463
PR02 -15193.426936  10998.737472  17290.964430    -22.497221
PR03   3251.084175  10450.652578  23083.220037     83.887947
PR04  19334.077635   4079.698902  16164.469793    199.954896
PR05  25147.353867  -4334.893699    466.631959    117.837538
PR07  -4034.831749 -10245.180360 -22971.286715     63.122072
PR08 -19498.995893  -3903.544921 -15900.560323    -72.259678
PR09   9962.599007 -22806.876680  -5373.107558    138.412265
PR11  -7373.805072 -10830.429920  21896.962493   -141.508956
PR12 -13178.899939   9313.324986  19781.332754     30.512976
PR13 -10892.530544  21831.931194   7436.687384    -38.492613
PR14  -1550.527244  22639.276999 -11654.110557     25.120565
PR15   7996.702122   9653.396481 -22191.119944     86.750646
PR16  12950.186266  -9142.111388 -19956.431085     18.009334
PR17  10822.393190  20310.706517 -10941.586663     11.561745
PR18  17851.326508  17369.447947   5613.928793     98.341451
PR19  16103.254341   7173.657688  18427.273015   -244.657527
PR20   3759.888978 -11392.100118  22511.503123    -98.863144
PR21 -11430.179319 -20530.745284   9967.548733    -32.733653
PR22 -17513.771120 -17365.629079  -6474.416973    118.328849
PR24  -3195.999575  12275.796777 -22111.405579    -21.667937
PR25  -9791.779607 -20889.521948  10915.597288     41.107511
EOF
